NORAD_CAT_ID,OBJECT_NAME,OBJECT_TYPE,EPOCH,MEAN_MOTION,ECCENTRICITY,INCLINATION,RA_OF_ASC_NODE,ARG_OF_PERICENTER,MEAN_ANOMALY,BSTAR,MEAN_MOTION_DOT,MEAN_MOTION_DDOT,TLE_LINE0,TLE_LINE1,TLE_LINE2,SEMIMAJOR_AXIS,PERIOD,APOGEE,PERIGEE,DECAYED
51780.0,STARLINK-3617,PAYLOAD,2023-10-14 11:48:19,15.08852403,0.0001646,53.2153,317.0038,90.5221,269.596,0.00026547,3.941e-05,0.0,0 STARLINK-3617,1 51780U 22017N   23287.49189166  .00003941  00000-0  26547-3 0  9993,2 51780  53.2153 317.0038 0001646  90.5221 269.5960 15.08852403 89998,6917.842,95.437,540.846,538.569,0.0
51780.0,STARLINK-3617,PAYLOAD,2023-10-15 05:17:35,15.08830194,0.0001479,53.2157,313.7357,81.7102,278.4058,-4.1367e-05,-9.46e-06,0.0,0 STARLINK-3617,1 51780U 22017N   23288.22054439 -.00000946  00000-0 -41367-4 0  9991,2 51780  53.2157 313.7357 0001479  81.7102 278.4058 15.08830194 91794,6917.91,95.438,540.799,538.752,0.0
51780.0,STARLINK-3617,PAYLOAD,2023-10-15 08:28:21,15.0883225,0.0001555,53.2156,313.1403,94.9119,265.2051,-1.512e-05,-5.29e-06,0.0,0 STARLINK-3617,1 51780U 22017N   23288.35302315 -.00000529  00000-0 -15120-4 0  9999,2 51780  53.2156 313.1403 0001555  94.9119 265.2051 15.08832250 90126,6917.904,95.438,540.845,538.693,0.0
51780.0,STARLINK-3617,PAYLOAD,2023-10-16 08:19:08,15.08844479,0.000162,53.2159,308.6809,92.0859,268.0319,0.00019065,2.748e-05,0.0,0 STARLINK-3617,1 51780U 22017N   23289.34662068  .00002748  00000-0  19065-3 0  9997,2 51780  53.2159 308.6809 0001620  92.0859 268.0319 15.08844479 91968,6917.867,95.437,540.852,538.611,0.0
51780.0,STARLINK-3617,PAYLOAD,2023-10-17 06:34:32,15.08843747,0.0001629,53.2156,304.5168,95.5962,264.5216,0.00028579,4.264e-05,0.0,0 STARLINK-3617,1 51780U 22017N   23290.27398239  .00004264  00000-0  28579-3 0  9992,2 51780  53.2156 304.5168 0001629  95.5962 264.5216 15.08843747 92101,6917.869,95.437,540.861,538.607,0.0
51780.0,STARLINK-3617,PAYLOAD,2023-10-18 00:03:46,15.08834246,0.0001517,53.2158,301.2448,92.1166,268.0,-9.4542e-05,-1.792e-05,0.0,0 STARLINK-3617,1 51780U 22017N   23291.00262399 -.00001792  00000-0 -94542-4 0  9990,2 51780  53.2158 301.2448 0001517  92.1166 268.0000 15.08834246 90521,6917.898,95.438,540.812,538.714,0.0
51780.0,STARLINK-3617,PAYLOAD,2023-10-18 04:49:56,15.08837785,0.0001597,53.216,300.3536,98.4637,261.6536,-2.2587e-05,-6.47e-06,0.0,0 STARLINK-3617,1 51780U 22017N   23291.20134274 -.00000647  00000-0 -22587-4 0  9990,2 51780  53.2160 300.3536 0001597  98.4637 261.6536 15.08837785 92247,6917.887,95.438,540.857,538.647,0.0
51780.0,STARLINK-3617,PAYLOAD,2023-10-19 07:51:29,15.08854715,0.0001482,53.216,295.2979,94.8157,265.3004,0.00049774,7.646e-05,0.0,0 STARLINK-3617,1 51780U 22017N   23292.32741901  .00007646  00000-0  49774-3 0  9995,2 51780  53.2160 295.2979 0001482  94.8157 265.3004 15.08854715 92412,6917.835,95.437,540.726,538.675,0.0
51780.0,STARLINK-3617,PAYLOAD,2023-10-19 17:23:47,15.08851207,0.0001741,53.2168,293.5157,80.0666,280.0523,0.00044974,6.879e-05,0.0,0 STARLINK-3617,1 51780U 22017N   23292.72486091  .00006879  00000-0  44974-3 0  9999,2 51780  53.2168 293.5157 0001741  80.0666 280.0523 15.08851207 92478,6917.846,95.437,540.916,538.507,0.0
51780.0,STARLINK-3617,PAYLOAD,2023-10-20 04:31:30,15.08836683,0.0001681,53.2163,291.4326,86.0273,274.0911,3.5884e-06,-2.31e-06,0.0,0 STARLINK-3617,1 51780U 22017N   23293.18854404 -.00000231  00000-0  35884-5 0  9996,2 51780  53.2163 291.4326 0001681  86.0273 274.0911 15.08836683 92544,6917.891,95.438,540.918,538.593,0.0
51780.0,STARLINK-3617,PAYLOAD,2023-10-20 09:17:39,15.08840454,0.0001654,53.2157,290.5399,85.9549,274.1632,0.00033045,4.975e-05,0.0,0 STARLINK-3617,1 51780U 22017N   23293.38726327  .00004975  00000-0  33045-3 0  9993,2 51780  53.2157 290.5399 0001654  85.9549 274.1632 15.08840454 90888,6917.879,95.438,540.888,538.6,0.0
51780.0,STARLINK-3617,PAYLOAD,2023-10-21 05:57:40,15.0883257,0.0001692,53.2164,286.6727,101.8057,258.3125,0.00025867,3.83e-05,0.0,0 STARLINK-3617,1 51780U 22017N   23294.24839015  .00003830  00000-0  25867-3 0  9990,2 51780  53.2164 286.6727 0001692 101.8057 258.3125 15.08832570 92705,6917.903,95.438,540.939,538.598,0.0
51780.0,STARLINK-3617,PAYLOAD,2023-10-21 17:05:22,15.08842279,0.0001723,53.2174,284.5905,98.3168,261.802,0.00032085,4.822e-05,0.0,0 STARLINK-3617,1 51780U 22017N   23294.71206874  .00004822  00000-0  32085-3 0  9995,2 51780  53.2174 284.5905 0001723  98.3168 261.8020 15.08842279 91089,6917.873,95.437,540.93,538.546,0.0
51780.0,STARLINK-3617,PAYLOAD,2023-10-22 04:13:04,15.08852539,0.0001615,53.2169,282.5087,99.778,260.3395,0.00047505,7.283e-05,0.0,0 STARLINK-3617,1 51780U 22017N   23295.17574465  .00007283  00000-0  47505-3 0  9997,2 51780  53.2169 282.5087 0001615  99.7780 260.3395 15.08852539 92841,6917.842,95.437,540.824,538.59,0.0
51780.0,STARLINK-3617,PAYLOAD,2023-10-22 08:59:13,15.0885892,0.0001673,53.2169,281.6155,104.0186,256.0992,0.00058956,9.112e-05,0.0,0 STARLINK-3617,1 51780U 22017N   23295.37446179  .00009112  00000-0  58956-3 0  9994,2 51780  53.2169 281.6155 0001673 104.0186 256.0992 15.08858920 91182,6917.823,95.436,540.845,538.53,0.0
51780.0,STARLINK-3617,PAYLOAD,2023-10-23 05:39:14,15.08837513,0.0001467,53.2165,277.7511,87.4235,272.6925,6.7445e-05,7.86e-06,0.0,0 STARLINK-3617,1 51780U 22017N   23296.23558987  .00000786  00000-0  67445-4 0  9993,2 51780  53.2165 277.7511 0001467  87.4235 272.6925 15.08837513 93008,6917.888,95.438,540.768,538.738,0.0
51780.0,STARLINK-3617,PAYLOAD,2023-10-24 08:40:48,15.08857477,0.0001563,53.2166,272.6978,84.1633,275.9537,0.00079556,0.00012402,0.0,0 STARLINK-3617,1 51780U 22017N   23297.36166819  .00012402  00000-0  79556-3 0  9990,2 51780  53.2166 272.6978 0001563  84.1633 275.9537 15.08857477 93177,6917.827,95.436,540.773,538.611,0.0
51780.0,STARLINK-3617,PAYLOAD,2023-10-25 08:31:35,15.08854605,0.000152,53.216,268.2371,93.0479,267.0687,0.00060976,9.434e-05,0.0,0 STARLINK-3617,1 51780U 22017N   23298.35526644  .00009434  00000-0  60976-3 0  9993,2 51780  53.2160 268.2371 0001520  93.0479 267.0687 15.08854605 93324,6917.836,95.437,540.752,538.649,0.0
51780.0,STARLINK-3617,PAYLOAD,2023-10-26 03:36:12,15.08839201,0.0001814,53.2159,264.6672,99.7051,260.4146,0.00018268,2.62e-05,0.0,0 STARLINK-3617,1 51780U 22017N   23299.15015030  .00002620  00000-0  18268-3 0  9991,2 51780  53.2159 264.6672 0001814  99.7051 260.4146 15.08839201 93446,6917.883,95.438,541.003,538.493,0.0
51780.0,STARLINK-3617,PAYLOAD,2023-10-26 08:22:22,15.08842239,0.0001708,53.216,263.775,89.8065,270.3123,0.00017075,2.431e-05,0.0,0 STARLINK-3617,1 51780U 22017N   23299.34887029  .00002431  00000-0  17075-3 0  9992,2 51780  53.2160 263.7750 0001708  89.8065 270.3123 15.08842239 91787,6917.874,95.437,540.92,538.557,0.0
51780.0,STARLINK-3617,PAYLOAD,2023-10-27 05:02:23,15.08852061,0.0001739,53.2166,259.9082,90.691,269.4281,0.00041866,6.383e-05,0.0,0 STARLINK-3617,1 51780U 22017N   23300.20998871  .00006383  00000-0  41866-3 0  9993,2 51780  53.2166 259.9082 0001739  90.6910 269.4281 15.08852061 93602,6917.844,95.437,540.912,538.506,0.0
51780.0,STARLINK-3617,PAYLOAD,2023-10-27 06:37:46,15.08853916,0.0001728,53.2163,259.6109,89.4851,270.6339,0.00046313,7.093e-05,0.0,0 STARLINK-3617,1 51780U 22017N   23300.27622811  .00007093  00000-0  46313-3 0  9999,2 51780  53.2163 259.6109 0001728  89.4851 270.6339 15.08853916 91925,6917.838,95.437,540.898,538.507,0.0
51780.0,STARLINK-3617,PAYLOAD,2023-10-27 20:56:14,15.08839902,0.000198,53.2154,256.9393,80.97,279.1516,0.00016446,2.33e-05,0.0,0 STARLINK-3617,1 51780U 22017N   23300.87239425  .00002330  00000-0  16446-3 0  9993,2 51780  53.2154 256.9393 0001980  80.9700 279.1516 15.08839902 93707,6917.881,95.438,541.115,538.376,0.0
51780.0,STARLINK-3617,PAYLOAD,2023-10-28 06:28:34,15.08829553,0.0001316,53.2154,255.153,83.5482,276.566,-5.2298e-05,-1.12e-05,0.0,0 STARLINK-3617,1 51780U 22017N   23301.26983827 -.00001120  00000-0 -52298-4 0  9993,2 51780  53.2154 255.1530 0001316  83.5482 276.5660 15.08829553 93768,6917.912,95.438,540.688,538.867,0.0
51780.0,STARLINK-3617,PAYLOAD,2023-10-28 20:47:02,15.08839886,0.0001238,53.2163,252.4776,83.023,277.0903,0.00032528,4.893e-05,0.0,0 STARLINK-3617,1 51780U 22017N   23301.86599961  .00004893  00000-0  32528-3 0  9992,2 51780  53.2163 252.4776 0001238  83.0230 277.0903 15.08839886 92168,6917.881,95.438,540.602,538.889,0.0
51780.0,STARLINK-3617,PAYLOAD,2023-10-29 03:08:34,15.08863714,0.0001296,53.216,251.2878,82.8256,277.2884,0.0014627,0.00023083,0.0,0 STARLINK-3617,1 51780U 22017N   23302.13095665  .00023083  00000-0  14627-2 0  9996,2 51780  53.2160 251.2878 0001296  82.8256 277.2884 15.08863714 93892,6917.808,95.436,540.569,538.776,0.0
51780.0,STARLINK-3617,PAYLOAD,2023-10-29 06:19:20,15.08880922,0.0001429,53.2157,250.6917,89.4759,270.6397,0.002061,0.00032702,0.0,0 STARLINK-3617,1 51780U 22017N   23302.26343316  .00032702  00000-0  20610-2 0  9996,2 51780  53.2157 250.6917 0001429  89.4759 270.6397 15.08880922 93913,6917.755,95.435,540.609,538.632,0.0
51780.0,STARLINK-3617,PAYLOAD,2023-10-29 14:16:16,15.08852441,0.0001647,53.2175,249.2049,88.1904,271.9277,0.00074852,0.00011649,0.0,0 STARLINK-3617,1 51780U 22017N   23302.59463736  .00011649  00000-0  74852-3 0  9996,2 51780  53.2175 249.2049 0001647  88.1904 271.9277 15.08852441 92277,6917.842,95.437,540.847,538.568,0.0
51780.0,STARLINK-3617,PAYLOAD,2023-10-29 20:37:49,15.08850954,0.0001609,53.2169,248.0177,79.6383,280.479,0.00079608,0.00012408,0.0,0 STARLINK-3617,1 51780U 22017N   23302.85959631  .00012408  00000-0  79608-3 0  9997,2 51780  53.2169 248.0177 0001609  79.6383 280.4790 15.08850954 94008,6917.847,95.437,540.825,538.599,0.0
51780.0,STARLINK-3617,PAYLOAD,2023-10-30 02:59:21,15.08856604,0.0001181,53.216,246.827,97.2518,262.8608,0.00057383,8.86e-05,0.0,0 STARLINK-3617,1 51780U 22017N   23303.12455228  .00008860  00000-0  57383-3 0  9994,2 51780  53.2160 246.8270 0001181  97.2518 262.8608 15.08856604 92356,6917.83,95.437,540.512,538.878,0.0
